PLEIADES 1A             
1 38012U 11076F   26201.26239515 -.00000115  00000+0 -14853-4 0  9996
2 38012  98.1961 275.9189 0001599  77.8566 353.9430 14.58547755776811
PLEIADES 1B             
1 39019U 12068A   26201.28274987 -.00000011  00000+0  73606-5 0  9996
2 39019  98.1931 275.8764 0001462  79.1049 281.0315 14.58535581725679
